start=new Date('2022-10-28T00:00:00.000Z').valueOf();
sats=[{"LAUNCH_DATE":"2021-03-24","DECAY_DATE":null,"GP_ID":"216335165","TIME_SYSTEM":"UTC","MEAN_MOTION":"15.06420189","CENTER_NAME":"EARTH","MEAN_ANOMALY":"265.9279","EPOCH":"2022-10-27T19:45:41.192352","BSTAR":"0.00036888000000","MEAN_MOTION_DOT":"0.00005220","FILE":"3636022","TLE_LINE2":"2 48029  53.0529  88.2065 0001363  94.1865 265.9279 15.06420189 89412","OBJECT_ID":"2021-024BE","MEAN_MOTION_DDOT":"0.0000000000000","ELEMENT_SET_NO":"999","CLASSIFICATION_TYPE":"U","REV_AT_EPOCH":"8941","ARG_OF_PERICENTER":"94.1865","ECCENTRICITY":"0.00013630","REF_FRAME":"TEME","PERIOD":"95.591","EPHEMERIS_TYPE":"0","SEMIMAJOR_AXIS":"6925.287","TLE_LINE1":"1 48029U 21024BE  22300.82339343  .00005220  00000-0  36888-3 0  9999","RCS_SIZE":"LARGE","INCLINATION":"53.0529","COUNTRY_CODE":"US","APOAPSIS":"548.096","MEAN_ELEMENT_THEORY":"SGP4","PERIAPSIS":"546.208","RA_OF_ASC_NODE":"88.2065","OBJECT_NAME":"STARLINK-2299","SITE":"AFETR","NORAD_CAT_ID":"48029","OBJECT_TYPE":"PAYLOAD"},{"MEAN_MOTION_DDOT":"0.0000000000000","TLE_LINE2":"2 48030  53.0557  93.6944 0001360  92.2083 267.9062 15.06402077 89260","OBJECT_ID":"2021-024BF","FILE":"3636022","BSTAR":"0.00020141000000","MEAN_MOTION_DOT":"0.00002720","REF_FRAME":"TEME","ECCENTRICITY":"0.00013600","PERIOD":"95.592","EPHEMERIS_TYPE":"0","ARG_OF_PERICENTER":"92.2083","ELEMENT_SET_NO":"999","CLASSIFICATION_TYPE":"U","REV_AT_EPOCH":"8926","TIME_SYSTEM":"UTC","GP_ID":"216335919","DECAY_DATE":null,"LAUNCH_DATE":"2021-03-24","EPOCH":"2022-10-27T17:13:44.453568","MEAN_ANOMALY":"267.9062","CENTER_NAME":"EARTH","MEAN_MOTION":"15.06402077","SITE":"AFETR","OBJECT_TYPE":"PAYLOAD","NORAD_CAT_ID":"48030","OBJECT_NAME":"STARLINK-2268","PERIAPSIS":"546.265","MEAN_ELEMENT_THEORY":"SGP4","RA_OF_ASC_NODE":"93.6944","TLE_LINE1":"1 48030U 21024BF  22300.71787562  .00002720  00000-0  20141-3 0  9996","RCS_SIZE":"LARGE","SEMIMAJOR_AXIS":"6925.342","APOAPSIS":"548.149","INCLINATION":"53.0557","COUNTRY_CODE":"US"},{"FILE":"3636022","MEAN_MOTION_DOT":"0.00013735","BSTAR":"0.00093836000000","MEAN_MOTION_DDOT":"0.0000000000000","TLE_LINE2":"2 48031  53.0541 338.2251 0002382  46.8452 313.2735 15.06431346 90897","OBJECT_ID":"2021-024BG","ARG_OF_PERICENTER":"46.8452","ELEMENT_SET_NO":"999","CLASSIFICATION_TYPE":"U","REV_AT_EPOCH":"9089","PERIOD":"95.590","EPHEMERIS_TYPE":"0","ECCENTRICITY":"0.00023820","REF_FRAME":"TEME","GP_ID":"216334667","TIME_SYSTEM":"UTC","DECAY_DATE":null,"LAUNCH_DATE":"2021-03-24","MEAN_MOTION":"15.06431346","MEAN_ANOMALY":"313.2735","EPOCH":"2022-10-27T19:44:21.188544","CENTER_NAME":"EARTH","OBJECT_NAME":"STARLINK-2267","RA_OF_ASC_NODE":"338.2251","PERIAPSIS":"545.468","MEAN_ELEMENT_THEORY":"SGP4","SITE":"AFETR","NORAD_CAT_ID":"48031","OBJECT_TYPE":"PAYLOAD","SEMIMAJOR_AXIS":"6925.252","RCS_SIZE":"MEDIUM","TLE_LINE1":"1 48031U 21024BG  22300.82246746  .00013735  00000-0  93836-3 0  9992","COUNTRY_CODE":"US","INCLINATION":"53.0541","APOAPSIS":"548.767"},{"MEAN_MOTION_DDOT":"0.0000000000000","TLE_LINE2":"2 48033  53.0527  88.8714 0001324 108.1816 251.9317 15.06405314 89399","OBJECT_ID":"2021-024BJ","FILE":"3636022","MEAN_MOTION_DOT":"0.00006099","BSTAR":"0.00042793000000","PERIOD":"95.592","EPHEMERIS_TYPE":"0","ECCENTRICITY":"0.00013240","REF_FRAME":"TEME","ARG_OF_PERICENTER":"108.1816","ELEMENT_SET_NO":"999","CLASSIFICATION_TYPE":"U","REV_AT_EPOCH":"8939","TIME_SYSTEM":"UTC","GP_ID":"216334418","DECAY_DATE":null,"LAUNCH_DATE":"2021-03-24","MEAN_ANOMALY":"251.9317","EPOCH":"2022-10-27T16:18:40.915872","CENTER_NAME":"EARTH","MEAN_MOTION":"15.06405314","SITE":"AFETR","NORAD_CAT_ID":"48033","OBJECT_TYPE":"PAYLOAD","OBJECT_NAME":"STARLINK-2286","RA_OF_ASC_NODE":"88.8714","PERIAPSIS":"546.280","MEAN_ELEMENT_THEORY":"SGP4","RCS_SIZE":"LARGE","TLE_LINE1":"1 48033U 21024BJ  22300.67964023  .00006099  00000-0  42793-3 0  9993","SEMIMAJOR_AXIS":"6925.332","APOAPSIS":"548.114","COUNTRY_CODE":"US","INCLINATION":"53.0527"},{"SEMIMAJOR_AXIS":"6925.361","TLE_LINE1":"1 48034U 21024BK  22300.69806359  .00000658  00000-0  63056-4 0  9994","RCS_SIZE":"LARGE","COUNTRY_CODE":"US","INCLINATION":"53.0555","APOAPSIS":"548.008","RA_OF_ASC_NODE":"88.7841","MEAN_ELEMENT_THEORY":"SGP4","PERIAPSIS":"546.445","OBJECT_NAME":"STARLINK-2288","SITE":"AFETR","OBJECT_TYPE":"PAYLOAD","NORAD_CAT_ID":"48034","LAUNCH_DATE":"2021-03-24","DECAY_DATE":null,"GP_ID":"216335665","TIME_SYSTEM":"UTC","MEAN_MOTION":"15.06395815","CENTER_NAME":"EARTH","EPOCH":"2022-10-27T16:45:12.694176","MEAN_ANOMALY":"246.6643","MEAN_MOTION_DOT":"0.00000658","BSTAR":"0.00006305600000","FILE":"3636022","TLE_LINE2":"2 48034  53.0555  88.7841 0001129 113.4465 246.6643 15.06395815 89390","OBJECT_ID":"2021-024BK","MEAN_MOTION_DDOT":"0.0000000000000","REV_AT_EPOCH":"8939","ELEMENT_SET_NO":"999","CLASSIFICATION_TYPE":"U","ARG_OF_PERICENTER":"113.4465","PERIOD":"95.592","EPHEMERIS_TYPE":"0","ECCENTRICITY":"0.00011290","REF_FRAME":"TEME"},{"PERIOD":"95.592","EPHEMERIS_TYPE":"0","ECCENTRICITY":"0.00011290","REF_FRAME":"TEME","ARG_OF_PERICENTER":"82.5855","ELEMENT_SET_NO":"999","CLASSIFICATION_TYPE":"U","REV_AT_EPOCH":"8889","MEAN_MOTION_DDOT":"0.0000000000000","TLE_LINE2":"2 48036  53.0546  87.8608 0001129  82.5855 277.5262 15.06399546 88891","OBJECT_ID":"2021-024BM","FILE":"3635962","MEAN_MOTION_DOT":"0.00002706","BSTAR":"0.00020047000000","EPOCH":"2022-10-27T21:42:27.051264","MEAN_ANOMALY":"277.5262","CENTER_NAME":"EARTH","MEAN_MOTION":"15.06399546","TIME_SYSTEM":"UTC","GP_ID":"216312298","LAUNCH_DATE":"2021-03-24","DECAY_DATE":null,"OBJECT_TYPE":"PAYLOAD","SITE":"AFETR","NORAD_CAT_ID":"48036","OBJECT_NAME":"STARLINK-2295","RA_OF_ASC_NODE":"87.8608","PERIAPSIS":"546.433","MEAN_ELEMENT_THEORY":"SGP4","APOAPSIS":"547.997","COUNTRY_CODE":"US","INCLINATION":"53.0546","RCS_SIZE":"LARGE","TLE_LINE1":"1 48036U 21024BM  22300.90447976  .00002706  00000-0  20047-3 0  9994","SEMIMAJOR_AXIS":"6925.350"},{"OBJECT_NAME":"STARLINK-2048","MEAN_ELEMENT_THEORY":"SGP4","PERIAPSIS":"546.020","RA_OF_ASC_NODE":"213.1130","OBJECT_TYPE":"PAYLOAD","SITE":"AFETR","NORAD_CAT_ID":"48092","INCLINATION":"53.0545","COUNTRY_CODE":"US","APOAPSIS":"548.346","SEMIMAJOR_AXIS":"6925.318","TLE_LINE1":"1 48092U 21027A   22300.90957063  .00003374  00000-0  24521-3 0  9995","RCS_SIZE":"LARGE","ARG_OF_PERICENTER":"76.9787","REV_AT_EPOCH":"8785","CLASSIFICATION_TYPE":"U","ELEMENT_SET_NO":"999","REF_FRAME":"TEME","ECCENTRICITY":"0.00016790","PERIOD":"95.592","EPHEMERIS_TYPE":"0","FILE":"3635916","BSTAR":"0.00024521000000","MEAN_MOTION_DOT":"0.00003374","MEAN_MOTION_DDOT":"0.0000000000000","TLE_LINE2":"2 48092  53.0545 213.1130 0001679  76.9787 283.1389 15.06409964 87851","OBJECT_ID":"2021-027A","MEAN_MOTION":"15.06409964","MEAN_ANOMALY":"283.1389","EPOCH":"2022-10-27T21:49:46.902432","CENTER_NAME":"EARTH","TIME_SYSTEM":"UTC","GP_ID":"216311215","LAUNCH_DATE":"2021-04-07","DECAY_DATE":null},{"OBJECT_NAME":"STARLINK-2404","MEAN_ELEMENT_THEORY":"SGP4","PERIAPSIS":"545.765","RA_OF_ASC_NODE":"278.8005","SITE":"AFETR","NORAD_CAT_ID":"48093","OBJECT_TYPE":"PAYLOAD","INCLINATION":"53.0556","COUNTRY_CODE":"US","APOAPSIS":"548.615","SEMIMAJOR_AXIS":"6925.325","TLE_LINE1":"1 48093U 21027B   22300.73954452  .00002423  00000-0  18146-3 0  9996","RCS_SIZE":"LARGE","ARG_OF_PERICENTER":"45.6075","ELEMENT_SET_NO":"999","CLASSIFICATION_TYPE":"U","REV_AT_EPOCH":"8732","ECCENTRICITY":"0.00020580","REF_FRAME":"TEME","EPHEMERIS_TYPE":"0","PERIOD":"95.592","FILE":"3636022","BSTAR":"0.00018146000000","MEAN_MOTION_DOT":"0.00002423","MEAN_MOTION_DDOT":"0.0000000000000","OBJECT_ID":"2021-027B","TLE_LINE2":"2 48093  53.0556 278.8005 0002058  45.6075 314.5082 15.06407667 87327","MEAN_MOTION":"15.06407667","EPOCH":"2022-10-27T17:44:56.646528","MEAN_ANOMALY":"314.5082","CENTER_NAME":"EARTH","TIME_SYSTEM":"UTC","GP_ID":"216335172","DECAY_DATE":null,"LAUNCH_DATE":"2021-04-07"},{"REV_AT_EPOCH":"8718","ELEMENT_SET_NO":"999","CLASSIFICATION_TYPE":"U","ARG_OF_PERICENTER":"47.1947","PERIOD":"95.592","EPHEMERIS_TYPE":"0","REF_FRAME":"TEME","ECCENTRICITY":"0.00021670","MEAN_MOTION_DOT":"0.00003927","BSTAR":"0.00028234000000","FILE":"3636022","OBJECT_ID":"2021-027C","TLE_LINE2":"2 48094  53.0547 288.8209 0002167  47.1947 312.9224 15.06405956 87184","MEAN_MOTION_DDOT":"0.0000000000000","MEAN_MOTION":"15.06405956","CENTER_NAME":"EARTH","EPOCH":"2022-10-27T16:34:35.781888","MEAN_ANOMALY":"312.9224","LAUNCH_DATE":"2021-04-07","DECAY_DATE":null,"GP_ID":"216335926","TIME_SYSTEM":"UTC","RA_OF_ASC_NODE":"288.8209","PERIAPSIS":"545.695","MEAN_ELEMENT_THEORY":"SGP4","OBJECT_NAME":"STARLINK-2412","SITE":"AFETR","NORAD_CAT_ID":"48094","OBJECT_TYPE":"PAYLOAD","COUNTRY_CODE":"US","INCLINATION":"53.0547","APOAPSIS":"548.696","SEMIMAJOR_AXIS":"6925.330","RCS_SIZE":"LARGE","TLE_LINE1":"1 48094U 21027C   22300.69069192  .00003927  00000-0  28234-3 0  9999"},{"INCLINATION":"53.0557","COUNTRY_CODE":"US","APOAPSIS":"549.077","SEMIMAJOR_AXIS":"6925.368","RCS_SIZE":"LARGE","TLE_LINE1":"1 48095U 21027D   22300.69806880  .00001142  00000-0  95590-4 0  9990","MEAN_ELEMENT_THEORY":"SGP4","PERIAPSIS":"545.390","RA_OF_ASC_NODE":"288.7732","OBJECT_NAME":"STARLINK-2414","SITE":"AFETR","OBJECT_TYPE":"PAYLOAD","NORAD_CAT_ID":"48095","MEAN_MOTION":"15.06393527","CENTER_NAME":"EARTH","EPOCH":"2022-10-27T16:45:13.144320","MEAN_ANOMALY":"316.0019","DECAY_DATE":null,"LAUNCH_DATE":"2021-04-07","TIME_SYSTEM":"UTC","GP_ID":"216334674","REV_AT_EPOCH":"8719","ELEMENT_SET_NO":"999","CLASSIFICATION_TYPE":"U","ARG_OF_PERICENTER":"44.1182","ECCENTRICITY":"0.00026620","REF_FRAME":"TEME","PERIOD":"95.593","EPHEMERIS_TYPE":"0","BSTAR":"0.00009559000000","MEAN_MOTION_DOT":"0.00001142","FILE":"3636022","OBJECT_ID":"2021-027D","TLE_LINE2":"2 48095  53.0557 288.7732 0002662  44.1182 316.0019 15.06393527 87192","MEAN_MOTION_DDOT":"0.0000000000000"}];
